[
  {
    "COMMENT": "GENERATED VIA SPACETRACK.ORG API",
    "ORIGINATOR": "18 SPCS",
    "NORAD_CAT_ID": "48621",
    "OBJECT_NAME": "HAIYANG 2D",
    "OBJECT_TYPE": "PAYLOAD",
    "CLASSIFICATION_TYPE": "U",
    "INTLDES": "21043A",
    "EPOCH": "2023-05-29 17:22:03",
    "EPOCH_MICROSECONDS": "871488",
    "MEAN_MOTION": "13.833713",
    "ECCENTRICITY": "0.0008683",
    "INCLINATION": "65.9965",
    "RA_OF_ASC_NODE": "199.3277",
    "ARG_OF_PERICENTER": "259.4424",
    "MEAN_ANOMALY": "100.5666",
    "EPHEMERIS_TYPE": "0",
    "ELEMENT_SET_NO": "999",
    "REV_AT_EPOCH": "10243",
    "BSTAR": "0.000061468",
    "MEAN_MOTION_DOT": "-0.00000014",
    "MEAN_MOTION_DDOT": "0",
    "FILE": "3920310",
    "TLE_LINE0": "0 HAIYANG 2D",
    "TLE_LINE1": "1 48621U 21043A   23149.72365592 -.00000014  00000-0  61468-4 0  9994",
    "TLE_LINE2": "2 48621  65.9965 199.3277 0008683 259.4424 100.5666 13.83371300102439",
    "OBJECT_ID": "2021-043A",
    "OBJECT_NUMBER": "48621",
    "SEMIMAJOR_AXIS": "7330.090",
    "PERIOD": "104.094",
    "APOGEE": "958.320",
    "PERIGEE": "945.591",
    "DECAYED": "0"
  },
  {
    "COMMENT": "GENERATED VIA SPACETRACK.ORG API",
    "ORIGINATOR": "18 SPCS",
    "NORAD_CAT_ID": "48621",
    "OBJECT_NAME": "HAIYANG 2D",
    "OBJECT_TYPE": "PAYLOAD",
    "CLASSIFICATION_TYPE": "U",
    "INTLDES": "21043A",
    "EPOCH": "2023-05-29 20:50:16",
    "EPOCH_MICROSECONDS": "433664",
    "MEAN_MOTION": "13.83371289",
    "ECCENTRICITY": "0.0008682",
    "INCLINATION": "65.9965",
    "RA_OF_ASC_NODE": "198.9677",
    "ARG_OF_PERICENTER": "259.4562",
    "MEAN_ANOMALY": "100.5528",
    "EPHEMERIS_TYPE": "0",
    "ELEMENT_SET_NO": "999",
    "REV_AT_EPOCH": "10241",
    "BSTAR": "0.000056609",
    "MEAN_MOTION_DOT": "-0.00000019",
    "MEAN_MOTION_DDOT": "0",
    "FILE": "3920354",
    "TLE_LINE0": "0 HAIYANG 2D",
    "TLE_LINE1": "1 48621U 21043A   23149.86824576 -.00000019  00000-0  56609-4 0  9997",
    "TLE_LINE2": "2 48621  65.9965 198.9677 0008682 259.4562 100.5528 13.83371289102411",
    "OBJECT_ID": "2021-043A",
    "OBJECT_NUMBER": "48621",
    "SEMIMAJOR_AXIS": "7330.090",
    "PERIOD": "104.094",
    "APOGEE": "958.319",
    "PERIGEE": "945.592",
    "DECAYED": "0"
  },
  {
    "COMMENT": "GENERATED VIA SPACETRACK.ORG API",
    "ORIGINATOR": "18 SPCS",
    "NORAD_CAT_ID": "48621",
    "OBJECT_NAME": "HAIYANG 2D",
    "OBJECT_TYPE": "PAYLOAD",
    "CLASSIFICATION_TYPE": "U",
    "INTLDES": "21043A",
    "EPOCH": "2023-05-30 03:46:41",
    "EPOCH_MICROSECONDS": "551104",
    "MEAN_MOTION": "13.83371324",
    "ECCENTRICITY": "0.0008681",
    "INCLINATION": "65.9964",
    "RA_OF_ASC_NODE": "198.2478",
    "ARG_OF_PERICENTER": "259.4212",
    "MEAN_ANOMALY": "100.5879",
    "EPHEMERIS_TYPE": "0",
    "ELEMENT_SET_NO": "999",
    "REV_AT_EPOCH": "10249",
    "BSTAR": "0.000053228",
    "MEAN_MOTION_DOT": "-0.00000023",
    "MEAN_MOTION_DDOT": "0",
    "FILE": "3920638",
    "TLE_LINE0": "0 HAIYANG 2D",
    "TLE_LINE1": "1 48621U 21043A   23150.15742536 -.00000023  00000-0  53228-4 0  9995",
    "TLE_LINE2": "2 48621  65.9964 198.2478 0008681 259.4212 100.5879 13.83371324102490",
    "OBJECT_ID": "2021-043A",
    "OBJECT_NUMBER": "48621",
    "SEMIMAJOR_AXIS": "7330.090",
    "PERIOD": "104.094",
    "APOGEE": "958.319",
    "PERIGEE": "945.592",
    "DECAYED": "0"
  },
  {
    "COMMENT": "GENERATED VIA SPACETRACK.ORG API",
    "ORIGINATOR": "18 SPCS",
    "NORAD_CAT_ID": "48621",
    "OBJECT_NAME": "HAIYANG 2D",
    "OBJECT_TYPE": "PAYLOAD",
    "CLASSIFICATION_TYPE": "U",
    "INTLDES": "21043A",
    "EPOCH": "2023-05-30 10:43:06",
    "EPOCH_MICROSECONDS": "672000",
    "MEAN_MOTION": "13.83371371",
    "ECCENTRICITY": "0.000868",
    "INCLINATION": "65.9964",
    "RA_OF_ASC_NODE": "197.5279",
    "ARG_OF_PERICENTER": "259.4701",
    "MEAN_ANOMALY": "100.539",
    "EPHEMERIS_TYPE": "0",
    "ELEMENT_SET_NO": "999",
    "REV_AT_EPOCH": "10253",
    "BSTAR": "0.000062334",
    "MEAN_MOTION_DOT": "-0.00000013",
    "MEAN_MOTION_DDOT": "0",
    "FILE": "3920880",
    "TLE_LINE0": "0 HAIYANG 2D",
    "TLE_LINE1": "1 48621U 21043A   23150.44660500 -.00000013  00000-0  62334-4 0  9994",
    "TLE_LINE2": "2 48621  65.9964 197.5279 0008680 259.4701 100.5390 13.83371371102538",
    "OBJECT_ID": "2021-043A",
    "OBJECT_NUMBER": "48621",
    "SEMIMAJOR_AXIS": "7330.090",
    "PERIOD": "104.094",
    "APOGEE": "958.318",
    "PERIGEE": "945.593",
    "DECAYED": "0"
  },
  {
    "COMMENT": "GENERATED VIA SPACETRACK.ORG API",
    "ORIGINATOR": "18 SPCS",
    "NORAD_CAT_ID": "48621",
    "OBJECT_NAME": "HAIYANG 2D",
    "OBJECT_TYPE": "PAYLOAD",
    "CLASSIFICATION_TYPE": "U",
    "INTLDES": "21043A",
    "EPOCH": "2023-05-30 14:11:19",
    "EPOCH_MICROSECONDS": "232448",
    "MEAN_MOTION": "13.83371387",
    "ECCENTRICITY": "0.0008678",
    "INCLINATION": "65.9964",
    "RA_OF_ASC_NODE": "197.1679",
    "ARG_OF_PERICENTER": "259.4938",
    "MEAN_ANOMALY": "100.5153",
    "EPHEMERIS_TYPE": "0",
    "ELEMENT_SET_NO": "999",
    "REV_AT_EPOCH": "10251",
    "BSTAR": "0.000061283",
    "MEAN_MOTION_DOT": "-0.00000014",
    "MEAN_MOTION_DDOT": "0",
    "FILE": "3920920",
    "TLE_LINE0": "0 HAIYANG 2D",
    "TLE_LINE1": "1 48621U 21043A   23150.59119482 -.00000014  00000-0  61283-4 0  9991",
    "TLE_LINE2": "2 48621  65.9964 197.1679 0008678 259.4938 100.5153 13.83371387102519",
    "OBJECT_ID": "2021-043A",
    "OBJECT_NUMBER": "48621",
    "SEMIMAJOR_AXIS": "7330.090",
    "PERIOD": "104.094",
    "APOGEE": "958.316",
    "PERIGEE": "945.594",
    "DECAYED": "0"
  },
  {
    "COMMENT": "GENERATED VIA SPACETRACK.ORG API",
    "ORIGINATOR": "18 SPCS",
    "NORAD_CAT_ID": "48621",
    "OBJECT_NAME": "HAIYANG 2D",
    "OBJECT_TYPE": "PAYLOAD",
    "CLASSIFICATION_TYPE": "U",
    "INTLDES": "21043A",
    "EPOCH": "2023-05-30 19:23:38",
    "EPOCH_MICROSECONDS": "71392",
    "MEAN_MOTION": "13.83371418",
    "ECCENTRICITY": "0.0008675",
    "INCLINATION": "65.9964",
    "RA_OF_ASC_NODE": "196.6279",
    "ARG_OF_PERICENTER": "259.5366",
    "MEAN_ANOMALY": "100.4725",
    "EPHEMERIS_TYPE": "0",
    "ELEMENT_SET_NO": "999",
    "REV_AT_EPOCH": "10258",
    "BSTAR": "0.000064036",
    "MEAN_MOTION_DOT": "-0.00000011",
    "MEAN_MOTION_DDOT": "0",
    "FILE": "3921088",
    "TLE_LINE0": "0 HAIYANG 2D",
    "TLE_LINE1": "1 48621U 21043A   23150.80807953 -.00000011  00000-0  64036-4 0  9998",
    "TLE_LINE2": "2 48621  65.9964 196.6279 0008675 259.5366 100.4725 13.83371418102588",
    "OBJECT_ID": "2021-043A",
    "OBJECT_NUMBER": "48621",
    "SEMIMAJOR_AXIS": "7330.090",
    "PERIOD": "104.094",
    "APOGEE": "958.314",
    "PERIGEE": "945.596",
    "DECAYED": "0"
  },
  {
    "COMMENT": "GENERATED VIA SPACETRACK.ORG API",
    "ORIGINATOR": "18 SPCS",
    "NORAD_CAT_ID": "48621",
    "OBJECT_NAME": "HAIYANG 2D",
    "OBJECT_TYPE": "PAYLOAD",
    "CLASSIFICATION_TYPE": "U",
    "INTLDES": "21043A",
    "EPOCH": "2023-05-30 21:07:44",
    "EPOCH_MICROSECONDS": "350752",
    "MEAN_MOTION": "13.83371433",
    "ECCENTRICITY": "0.0008675",
    "INCLINATION": "65.9964",
    "RA_OF_ASC_NODE": "196.448",
    "ARG_OF_PERICENTER": "259.531",
    "MEAN_ANOMALY": "100.4781",
    "EPHEMERIS_TYPE": "0",
    "ELEMENT_SET_NO": "999",
    "REV_AT_EPOCH": "10255",
    "BSTAR": "0.000065614",
    "MEAN_MOTION_DOT": "-0.00000009",
    "MEAN_MOTION_DDOT": "0",
    "FILE": "3921192",
    "TLE_LINE0": "0 HAIYANG 2D",
    "TLE_LINE1": "1 48621U 21043A   23150.88037443 -.00000009  00000-0  65614-4 0  9995",
    "TLE_LINE2": "2 48621  65.9964 196.4480 0008675 259.5310 100.4781 13.83371433102555",
    "OBJECT_ID": "2021-043A",
    "OBJECT_NUMBER": "48621",
    "SEMIMAJOR_AXIS": "7330.090",
    "PERIOD": "104.094",
    "APOGEE": "958.314",
    "PERIGEE": "945.596",
    "DECAYED": "0"
  },
  {
    "COMMENT": "GENERATED VIA SPACETRACK.ORG API",
    "ORIGINATOR": "18 SPCS",
    "NORAD_CAT_ID": "48621",
    "OBJECT_NAME": "HAIYANG 2D",
    "OBJECT_TYPE": "PAYLOAD",
    "CLASSIFICATION_TYPE": "U",
    "INTLDES": "21043A",
    "EPOCH": "2023-05-31 04:04:09",
    "EPOCH_MICROSECONDS": "466464",
    "MEAN_MOTION": "13.83371485",
    "ECCENTRICITY": "0.0008676",
    "INCLINATION": "65.9963",
    "RA_OF_ASC_NODE": "195.728",
    "ARG_OF_PERICENTER": "259.5044",
    "MEAN_ANOMALY": "100.5047",
    "EPHEMERIS_TYPE": "0",
    "ELEMENT_SET_NO": "999",
    "REV_AT_EPOCH": "10263",
    "BSTAR": "0.00006489",
    "MEAN_MOTION_DOT": "-0.0000001",
    "MEAN_MOTION_DDOT": "0",
    "FILE": "3921470",
    "TLE_LINE0": "0 HAIYANG 2D",
    "TLE_LINE1": "1 48621U 21043A   23151.16955401 -.00000010  00000-0  64890-4 0  9997",
    "TLE_LINE2": "2 48621  65.9963 195.7280 0008676 259.5044 100.5047 13.83371485102631",
    "OBJECT_ID": "2021-043A",
    "OBJECT_NUMBER": "48621",
    "SEMIMAJOR_AXIS": "7330.090",
    "PERIOD": "104.094",
    "APOGEE": "958.314",
    "PERIGEE": "945.595",
    "DECAYED": "0"
  }
]